{
 "generated_at": "2026-06-19T09:28:30Z",
 "sources": [
  {
   "name": "CelesTrak",
   "url": "https://celestrak.org/NORAD/elements/",
   "license": "frei verfügbar; Attribution. Ursprünglich USSPACECOM/Space-Track."
  },
  {
   "name": "GCAT (J. McDowell, planet4589.org)",
   "url": "https://planet4589.org/space/gcat/",
   "license": "CC-BY 4.0"
  }
 ],
 "satellites": [
  {
   "norad": 41875,
   "name": "GOKTURK 1A",
   "intl": "2016-073A",
   "group": "resource",
   "gcat": {
    "class": "D",
    "category": "IMG",
    "owner": "MSBTR",
    "state": "TR"
   },
   "omm": {
    "OBJECT_NAME": "GOKTURK 1A",
    "OBJECT_ID": "2016-073A",
    "EPOCH": "2026-06-19T03:51:54.587808",
    "MEAN_MOTION": 14.62777385,
    "ECCENTRICITY": 0.0001448,
    "INCLINATION": 98.1247,
    "RA_OF_ASC_NODE": 64.805,
    "ARG_OF_PERICENTER": 74.1493,
    "MEAN_ANOMALY": 285.9868,
    "EPHEMERIS_TYPE": 0,
    "CLASSIFICATION_TYPE": "U",
    "NORAD_CAT_ID": 41875,
    "ELEMENT_SET_NO": 999,
    "REV_AT_EPOCH": 50911,
    "BSTAR": 0.00014746,
    "MEAN_MOTION_DOT": 0.00000705,
    "MEAN_MOTION_DDOT": 0
   }
  },
  {
   "norad": 39030,
   "name": "GOKTURK 2",
   "intl": "2012-073A",
   "group": "resource",
   "gcat": {
    "class": "D",
    "category": "IMG",
    "owner": "MSBTR",
    "state": "TR"
   },
   "omm": {
    "OBJECT_NAME": "GOKTURK 2",
    "OBJECT_ID": "2012-073A",
    "EPOCH": "2026-06-19T04:23:30.875136",
    "MEAN_MOTION": 14.7554476,
    "ECCENTRICITY": 0.0001518,
    "INCLINATION": 97.6812,
    "RA_OF_ASC_NODE": 7.5137,
    "ARG_OF_PERICENTER": 56.1472,
    "MEAN_ANOMALY": 303.9882,
    "EPHEMERIS_TYPE": 0,
    "CLASSIFICATION_TYPE": "U",
    "NORAD_CAT_ID": 39030,
    "ELEMENT_SET_NO": 999,
    "REV_AT_EPOCH": 72480,
    "BSTAR": 0.000078347,
    "MEAN_MOTION_DOT": 0.00000487,
    "MEAN_MOTION_DDOT": 0
   }
  },
  {
   "norad": 33492,
   "name": "GOSAT (IBUKI)",
   "intl": "2009-002A",
   "group": "resource",
   "gcat": {
    "class": "C",
    "category": "EOSCI",
    "owner": "JAXA",
    "state": "J"
   },
   "omm": {
    "OBJECT_NAME": "GOSAT (IBUKI)",
    "OBJECT_ID": "2009-002A",
    "EPOCH": "2026-06-19T04:24:42.047136",
    "MEAN_MOTION": 14.67541824,
    "ECCENTRICITY": 0.0001541,
    "INCLINATION": 98.0895,
    "RA_OF_ASC_NODE": 281.2403,
    "ARG_OF_PERICENTER": 84.9565,
    "MEAN_ANOMALY": 275.1815,
    "EPHEMERIS_TYPE": 0,
    "CLASSIFICATION_TYPE": "U",
    "NORAD_CAT_ID": 33492,
    "ELEMENT_SET_NO": 999,
    "REV_AT_EPOCH": 93175,
    "BSTAR": 0.00016094,
    "MEAN_MOTION_DOT": 0.00000865,
    "MEAN_MOTION_DDOT": 0
   }
  },
  {
   "norad": 64694,
   "name": "GOSAT-GW (IBUKI GW)",
   "intl": "2025-141A",
   "group": "resource",
   "gcat": {
    "class": "C",
    "category": "EOSCI",
    "owner": "JAXA",
    "state": "J"
   },
   "omm": {
    "OBJECT_NAME": "GOSAT-GW (IBUKI GW)",
    "OBJECT_ID": "2025-141A",
    "EPOCH": "2026-06-19T04:01:04.445184",
    "MEAN_MOTION": 14.67554178,
    "ECCENTRICITY": 0.0001442,
    "INCLINATION": 98.0573,
    "RA_OF_ASC_NODE": 107.4524,
    "ARG_OF_PERICENTER": 83.8382,
    "MEAN_ANOMALY": 276.2986,
    "EPHEMERIS_TYPE": 0,
    "CLASSIFICATION_TYPE": "U",
    "NORAD_CAT_ID": 64694,
    "ELEMENT_SET_NO": 999,
    "REV_AT_EPOCH": 5213,
    "BSTAR": 0.00001305,
    "MEAN_MOTION_DOT": 2.6e-7,
    "MEAN_MOTION_DDOT": 0
   }
  },
  {
   "norad": 39574,
   "name": "GPM-CORE",
   "intl": "2014-009C",
   "group": "resource",
   "gcat": {
    "class": "C",
    "category": "EOSCI",
    "owner": "GSFC",
    "state": "US"
   },
   "omm": {
    "OBJECT_NAME": "GPM-CORE",
    "OBJECT_ID": "2014-009C",
    "EPOCH": "2026-06-19T03:38:39.072768",
    "MEAN_MOTION": 15.44607876,
    "ECCENTRICITY": 0.001176,
    "INCLINATION": 64.9725,
    "RA_OF_ASC_NODE": 301.5469,
    "ARG_OF_PERICENTER": 252.2659,
    "MEAN_ANOMALY": 107.7198,
    "EPHEMERIS_TYPE": 0,
    "CLASSIFICATION_TYPE": "U",
    "NORAD_CAT_ID": 39574,
    "ELEMENT_SET_NO": 999,
    "REV_AT_EPOCH": 69811,
    "BSTAR": 0.00021184,
    "MEAN_MOTION_DOT": 0.00009692,
    "MEAN_MOTION_DDOT": 0
   }
  },
  {
   "norad": 31113,
   "name": "HAIYANG-1B",
   "intl": "2007-010A",
   "group": "resource",
   "gcat": {
    "class": null,
    "category": null,
    "owner": null,
    "state": null
   },
   "omm": {
    "OBJECT_NAME": "HAIYANG-1B",
    "OBJECT_ID": "2007-010A",
    "EPOCH": "2026-06-18T21:25:38.949024",
    "MEAN_MOTION": 14.31027257,
    "ECCENTRICITY": 0.0013124,
    "INCLINATION": 98.3495,
    "RA_OF_ASC_NODE": 151.6719,
    "ARG_OF_PERICENTER": 191.1687,
    "MEAN_ANOMALY": 168.9207,
    "EPHEMERIS_TYPE": 0,
    "CLASSIFICATION_TYPE": "U",
    "NORAD_CAT_ID": 31113,
    "ELEMENT_SET_NO": 999,
    "REV_AT_EPOCH": 88,
    "BSTAR": 0.000041153,
    "MEAN_MOTION_DOT": 6.7e-7,
    "MEAN_MOTION_DDOT": 0
   }
  },
  {
   "norad": 37781,
   "name": "HAIYANG-2A",
   "intl": "2011-043A",
   "group": "resource",
   "gcat": {
    "class": null,
    "category": null,
    "owner": null,
    "state": null
   },
   "omm": {
    "OBJECT_NAME": "HAIYANG-2A",
    "OBJECT_ID": "2011-043A",
    "EPOCH": "2026-06-19T03:35:24.530208",
    "MEAN_MOTION": 13.74331681,
    "ECCENTRICITY": 0.0005802,
    "INCLINATION": 99.3391,
    "RA_OF_ASC_NODE": 172.7825,
    "ARG_OF_PERICENTER": 87.8282,
    "MEAN_ANOMALY": 272.3531,
    "EPHEMERIS_TYPE": 0,
    "CLASSIFICATION_TYPE": "U",
    "NORAD_CAT_ID": 37781,
    "ELEMENT_SET_NO": 999,
    "REV_AT_EPOCH": 74692,
    "BSTAR": -0.00015359,
    "MEAN_MOTION_DOT": -0.00000188,
    "MEAN_MOTION_DDOT": 0
   }
  },
  {
   "norad": 40267,
   "name": "HIMAWARI-8",
   "intl": "2014-060A",
   "group": "weather",
   "gcat": {
    "class": "C",
    "category": "MET",
    "owner": "JMA",
    "state": "J"
   },
   "omm": {
    "OBJECT_NAME": "HIMAWARI-8",
    "OBJECT_ID": "2014-060A",
    "EPOCH": "2026-06-18T22:08:44.060352",
    "MEAN_MOTION": 1.00271141,
    "ECCENTRICITY": 0.0001083,
    "INCLINATION": 0.013,
    "RA_OF_ASC_NODE": 40.6983,
    "ARG_OF_PERICENTER": 51.0885,
    "MEAN_ANOMALY": 288.2169,
    "EPHEMERIS_TYPE": 0,
    "CLASSIFICATION_TYPE": "U",
    "NORAD_CAT_ID": 40267,
    "ELEMENT_SET_NO": 999,
    "REV_AT_EPOCH": 4277,
    "BSTAR": 0,
    "MEAN_MOTION_DOT": -0.00000282,
    "MEAN_MOTION_DDOT": 0
   }
  },
  {
   "norad": 41836,
   "name": "HIMAWARI-9",
   "intl": "2016-064A",
   "group": "weather",
   "gcat": {
    "class": "C",
    "category": "MET",
    "owner": "JMA",
    "state": "J"
   },
   "omm": {
    "OBJECT_NAME": "HIMAWARI-9",
    "OBJECT_ID": "2016-064A",
    "EPOCH": "2026-06-18T22:08:44.060352",
    "MEAN_MOTION": 1.00270262,
    "ECCENTRICITY": 0.0000991,
    "INCLINATION": 0.0164,
    "RA_OF_ASC_NODE": 302.7484,
    "ARG_OF_PERICENTER": 186.9714,
    "MEAN_ANOMALY": 250.3746,
    "EPHEMERIS_TYPE": 0,
    "CLASSIFICATION_TYPE": "U",
    "NORAD_CAT_ID": 41836,
    "ELEMENT_SET_NO": 999,
    "REV_AT_EPOCH": 3522,
    "BSTAR": 0,
    "MEAN_MOTION_DOT": -0.00000281,
    "MEAN_MOTION_DDOT": 0
   }
  },
  {
   "norad": 40015,
   "name": "HODOYOSHI-3",
   "intl": "2014-033F",
   "group": "resource",
   "gcat": {
    "class": null,
    "category": null,
    "owner": null,
    "state": null
   },
   "omm": {
    "OBJECT_NAME": "HODOYOSHI-3",
    "OBJECT_ID": "2014-033F",
    "EPOCH": "2026-06-19T04:56:31.809408",
    "MEAN_MOTION": 14.85391853,
    "ECCENTRICITY": 0.0032499,
    "INCLINATION": 97.642,
    "RA_OF_ASC_NODE": 333.1651,
    "ARG_OF_PERICENTER": 350.6335,
    "MEAN_ANOMALY": 9.4271,
    "EPHEMERIS_TYPE": 0,
    "CLASSIFICATION_TYPE": "U",
    "NORAD_CAT_ID": 40015,
    "ELEMENT_SET_NO": 999,
    "REV_AT_EPOCH": 64792,
    "BSTAR": 0.000093259,
    "MEAN_MOTION_DOT": 0.00000757,
    "MEAN_MOTION_DDOT": 0
   }
  },
  {
   "norad": 40011,
   "name": "HODOYOSHI-4",
   "intl": "2014-033B",
   "group": "resource",
   "gcat": {
    "class": null,
    "category": null,
    "owner": null,
    "state": null
   },
   "omm": {
    "OBJECT_NAME": "HODOYOSHI-4",
    "OBJECT_ID": "2014-033B",
    "EPOCH": "2026-06-19T04:27:28.931328",
    "MEAN_MOTION": 14.88129154,
    "ECCENTRICITY": 0.0022438,
    "INCLINATION": 97.5446,
    "RA_OF_ASC_NODE": 354.911,
    "ARG_OF_PERICENTER": 301.4044,
    "MEAN_ANOMALY": 58.4978,
    "EPHEMERIS_TYPE": 0,
    "CLASSIFICATION_TYPE": "U",
    "NORAD_CAT_ID": 40011,
    "ELEMENT_SET_NO": 999,
    "REV_AT_EPOCH": 64910,
    "BSTAR": 0.0000706,
    "MEAN_MOTION_DOT": 0.000006,
    "MEAN_MOTION_DDOT": 0
   }
  },
  {
   "norad": 33320,
   "name": "HUANJING 1A (HJ-1A)",
   "intl": "2008-041A",
   "group": "resource",
   "gcat": {
    "class": null,
    "category": null,
    "owner": null,
    "state": null
   },
   "omm": {
    "OBJECT_NAME": "HUANJING 1A (HJ-1A)",
    "OBJECT_ID": "2008-041A",
    "EPOCH": "2026-06-19T04:32:22.640352",
    "MEAN_MOTION": 14.83991216,
    "ECCENTRICITY": 0.0020151,
    "INCLINATION": 97.6683,
    "RA_OF_ASC_NODE": 155.9506,
    "ARG_OF_PERICENTER": 128.5522,
    "MEAN_ANOMALY": 231.7502,
    "EPHEMERIS_TYPE": 0,
    "CLASSIFICATION_TYPE": "U",
    "NORAD_CAT_ID": 33320,
    "ELEMENT_SET_NO": 999,
    "REV_AT_EPOCH": 95870,
    "BSTAR": 0.00017002,
    "MEAN_MOTION_DOT": 0.00001368,
    "MEAN_MOTION_DDOT": 0
   }
  },
  {
   "norad": 33321,
   "name": "HUANJING 1B (HJ-1B)",
   "intl": "2008-041B",
   "group": "resource",
   "gcat": {
    "class": null,
    "category": null,
    "owner": null,
    "state": null
   },
   "omm": {
    "OBJECT_NAME": "HUANJING 1B (HJ-1B)",
    "OBJECT_ID": "2008-041B",
    "EPOCH": "2026-06-19T05:26:17.386368",
    "MEAN_MOTION": 14.83319381,
    "ECCENTRICITY": 0.0036218,
    "INCLINATION": 97.6519,
    "RA_OF_ASC_NODE": 159.1521,
    "ARG_OF_PERICENTER": 174.1816,
    "MEAN_ANOMALY": 185.9827,
    "EPHEMERIS_TYPE": 0,
    "CLASSIFICATION_TYPE": "U",
    "NORAD_CAT_ID": 33321,
    "ELEMENT_SET_NO": 999,
    "REV_AT_EPOCH": 95871,
    "BSTAR": 0.0000601,
    "MEAN_MOTION_DOT": 0.00000445,
    "MEAN_MOTION_DDOT": 0
   }
  }
 ]
}
